QIANFAN-57              
1 62787U 25016C   25258.61425322  .00000064  00000+0  80813-4 0  9994
2 62787  88.9779 112.3002 0002537  69.6369 290.5055 13.50964902 35301
QIANFAN-58              
1 62788U 25016D   25258.58539291  .00000069  00000+0  87661-4 0  9995
2 62788  88.9748 112.1622 0012190 235.0221 124.9786 13.50971495 35346
QIANFAN-59              
1 62789U 25016E   25258.60180719  .00000063  00000+0  81631-4 0  9991
2 62789  88.9772 112.2112 0012608 239.2199 120.7710 13.49480126 35348
QIANFAN-60              
1 62790U 25016F   25258.58634729  .00000034  00000+0  32761-4 0  9993
2 62790  88.9753 112.2072 0013741 236.0721 123.9125 13.52522841 35327
QIANFAN-61              
1 62791U 25016G   25258.60180067  .00000067  00000+0  85520-4 0  9995
2 62791  88.9821 112.3043 0013039 234.7422 125.2509 13.50971134 35340
QIANFAN-62              
1 62792U 25016H   25258.60590697  .00000053  00000+0  63435-4 0  9996
2 62792  88.9767 112.2200 0014413 235.4683 124.5108 13.50965082 35339
QIANFAN-63              
1 62793U 25016J   25258.62277470  .00000080  00000+0  10786-3 0  9990
2 62793  88.9773 112.1620 0014136 241.9391 118.0331 13.49731574 35377
QIANFAN-64              
1 62794U 25016K   25258.60603692  .00000051  00000+0  59555-4 0  9994
2 62794  88.9760 112.1537 0012283 231.7211 128.2836 13.52420450 35364
